CCSDS_OMM_VERS = 2.0
CREATION_DATE  = 
ORIGINATOR     = 

OBJECT_NAME    = RSP-03
OBJECT_ID      = 1998-067XL
CENTER_NAME    = EARTH
REF_FRAME      = TEME
TIME_SYSTEM    = UTC
MEAN_ELEMENT_THEORY = SGP/SGP4

EPOCH          = 2026-02-09T15:49:38.856000
MEAN_MOTION    = 16.04479219
ECCENTRICITY   = .0007808
INCLINATION    = 51.6146
RA_OF_ASC_NODE = 190.8360
ARG_OF_PERICENTER = 307.6496
MEAN_ANOMALY   = 52.3806

EPHEMERIS_TYPE = 0
CLASSIFICATION_TYPE = U
NORAD_CAT_ID   = 65732
ELEMENT_SET_NO = 999
REV_AT_EPOCH   = 2248
BSTAR          = .1447E-2
MEAN_MOTION_DOT = .986718E-2
MEAN_MOTION_DDOT = .52171E-3

CCSDS_OMM_VERS = 2.0
CREATION_DATE  = 
ORIGINATOR     = 

OBJECT_NAME    = YOTSUBA-KULOVER
OBJECT_ID      = 1998-067XN
CENTER_NAME    = EARTH
REF_FRAME      = TEME
TIME_SYSTEM    = UTC
MEAN_ELEMENT_THEORY = SGP/SGP4

EPOCH          = 2026-02-09T14:29:01.504032
MEAN_MOTION    = 15.71134450
ECCENTRICITY   = .00039843
INCLINATION    = 51.6236
RA_OF_ASC_NODE = 201.8484
ARG_OF_PERICENTER = 261.2387
MEAN_ANOMALY   = 98.8160

EPHEMERIS_TYPE = 0
CLASSIFICATION_TYPE = U
NORAD_CAT_ID   = 65941
ELEMENT_SET_NO = 999
REV_AT_EPOCH   = 1907
BSTAR          = .96139671E-3
MEAN_MOTION_DOT = .12512E-2
MEAN_MOTION_DDOT = 0

CCSDS_OMM_VERS = 2.0
CREATION_DATE  = 
ORIGINATOR     = 

OBJECT_NAME    = BOTAN
OBJECT_ID      = 1998-067XP
CENTER_NAME    = EARTH
REF_FRAME      = TEME
TIME_SYSTEM    = UTC
MEAN_ELEMENT_THEORY = SGP/SGP4

EPOCH          = 2026-02-09T11:17:53.174112
MEAN_MOTION    = 15.85050158
ECCENTRICITY   = .00064157
INCLINATION    = 51.6175
RA_OF_ASC_NODE = 198.6624
ARG_OF_PERICENTER = 288.6720
MEAN_ANOMALY   = 71.3587

EPHEMERIS_TYPE = 0
CLASSIFICATION_TYPE = U
NORAD_CAT_ID   = 65942
ELEMENT_SET_NO = 999
REV_AT_EPOCH   = 1910
BSTAR          = .15228284E-2
MEAN_MOTION_DOT = .382643E-2
MEAN_MOTION_DDOT = 0

CCSDS_OMM_VERS = 2.0
CREATION_DATE  = 
ORIGINATOR     = 

OBJECT_NAME    = E-KAGAKU-1
OBJECT_ID      = 1998-067XQ
CENTER_NAME    = EARTH
REF_FRAME      = TEME
TIME_SYSTEM    = UTC
MEAN_ELEMENT_THEORY = SGP/SGP4

EPOCH          = 2026-02-09T11:27:04.026816
MEAN_MOTION    = 15.70999257
ECCENTRICITY   = .0003685
INCLINATION    = 51.6272
RA_OF_ASC_NODE = 202.5184
ARG_OF_PERICENTER = 280.4332
MEAN_ANOMALY   = 79.6250

EPHEMERIS_TYPE = 0
CLASSIFICATION_TYPE = U
NORAD_CAT_ID   = 65943
ELEMENT_SET_NO = 999
REV_AT_EPOCH   = 1905
BSTAR          = .10797182E-2
MEAN_MOTION_DOT = .140038E-2
MEAN_MOTION_DDOT = 0

CCSDS_OMM_VERS = 2.0
CREATION_DATE  = 
ORIGINATOR     = 

OBJECT_NAME    = HRC MONOBLOCK CAMERA
OBJECT_ID      = 1998-067XR
CENTER_NAME    = EARTH
REF_FRAME      = TEME
TIME_SYSTEM    = UTC
MEAN_ELEMENT_THEORY = SGP/SGP4

EPOCH          = 2026-02-09T17:14:21.115680
MEAN_MOTION    = 15.59309115
ECCENTRICITY   = .0001235
INCLINATION    = 51.6276
RA_OF_ASC_NODE = 206.3794
ARG_OF_PERICENTER = 357.5196
MEAN_ANOMALY   = 2.5791

EPHEMERIS_TYPE = 0
CLASSIFICATION_TYPE = U
NORAD_CAT_ID   = 66052
ELEMENT_SET_NO = 999
REV_AT_EPOCH   = 1802
BSTAR          = .59664E-3
MEAN_MOTION_DOT = .47675E-3
MEAN_MOTION_DDOT = 0

CCSDS_OMM_VERS = 2.0
CREATION_DATE  = 
ORIGINATOR     = 

OBJECT_NAME    = HTV-X1
OBJECT_ID      = 2025-241A
CENTER_NAME    = EARTH
REF_FRAME      = TEME
TIME_SYSTEM    = UTC
MEAN_ELEMENT_THEORY = SGP/SGP4

EPOCH          = 2026-02-09T13:37:56.330112
MEAN_MOTION    = 15.48504497
ECCENTRICITY   = .00111287
INCLINATION    = 51.6311
RA_OF_ASC_NODE = 211.3720
ARG_OF_PERICENTER = 80.8535
MEAN_ANOMALY   = 279.3711

EPHEMERIS_TYPE = 0
CLASSIFICATION_TYPE = U
NORAD_CAT_ID   = 66174
ELEMENT_SET_NO = 999
REV_AT_EPOCH   = 51
BSTAR          = .17539621E-3
MEAN_MOTION_DOT = .9074E-4
MEAN_MOTION_DDOT = 0

CCSDS_OMM_VERS = 2.0
CREATION_DATE  = 
ORIGINATOR     = 

OBJECT_NAME    = SZ-21 MODULE
OBJECT_ID      = 2025-246C
CENTER_NAME    = EARTH
REF_FRAME      = TEME
TIME_SYSTEM    = UTC
MEAN_ELEMENT_THEORY = SGP/SGP4

EPOCH          = 2026-02-09T06:34:48.565344
MEAN_MOTION    = 15.66393879
ECCENTRICITY   = .0002766
INCLINATION    = 41.4766
RA_OF_ASC_NODE = 17.9863
ARG_OF_PERICENTER = 286.9466
MEAN_ANOMALY   = 73.1072

EPHEMERIS_TYPE = 0
CLASSIFICATION_TYPE = U
NORAD_CAT_ID   = 66515
ELEMENT_SET_NO = 999
REV_AT_EPOCH   = 1361
BSTAR          = .34919E-3
MEAN_MOTION_DOT = .37161E-3
MEAN_MOTION_DDOT = 0

CCSDS_OMM_VERS = 2.0
CREATION_DATE  = 
ORIGINATOR     = 

OBJECT_NAME    = SHENZHOU-22
OBJECT_ID      = 2025-272A
CENTER_NAME    = EARTH
REF_FRAME      = TEME
TIME_SYSTEM    = UTC
MEAN_ELEMENT_THEORY = SGP/SGP4

EPOCH          = 2026-02-09T10:04:12.077472
MEAN_MOTION    = 15.59384169
ECCENTRICITY   = .00046973
INCLINATION    = 41.4684
RA_OF_ASC_NODE = 20.0103
ARG_OF_PERICENTER = 39.0740
MEAN_ANOMALY   = 321.0437

EPHEMERIS_TYPE = 0
CLASSIFICATION_TYPE = U
NORAD_CAT_ID   = 66645
ELEMENT_SET_NO = 999
REV_AT_EPOCH   = 26764
BSTAR          = .22931724E-3
MEAN_MOTION_DOT = .18345E-3
MEAN_MOTION_DDOT = 0

CCSDS_OMM_VERS = 2.0
CREATION_DATE  = 
ORIGINATOR     = 

OBJECT_NAME    = SOYUZ-MS 28
OBJECT_ID      = 2025-275A
CENTER_NAME    = EARTH
REF_FRAME      = TEME
TIME_SYSTEM    = UTC
MEAN_ELEMENT_THEORY = SGP/SGP4

EPOCH          = 2026-02-09T13:37:56.330112
MEAN_MOTION    = 15.48504497
ECCENTRICITY   = .0011129
INCLINATION    = 51.6311
RA_OF_ASC_NODE = 211.3720
ARG_OF_PERICENTER = 80.8535
MEAN_ANOMALY   = 279.3711

EPHEMERIS_TYPE = 0
CLASSIFICATION_TYPE = U
NORAD_CAT_ID   = 66664
ELEMENT_SET_NO = 999
REV_AT_EPOCH   = 55197
BSTAR          = .1754E-3
MEAN_MOTION_DOT = .9074E-4
MEAN_MOTION_DDOT = 0

CCSDS_OMM_VERS = 2.0
CREATION_DATE  = 
ORIGINATOR     = 

OBJECT_NAME    = DUPLEX
OBJECT_ID      = 1998-067XS
CENTER_NAME    = EARTH
REF_FRAME      = TEME
TIME_SYSTEM    = UTC
MEAN_ELEMENT_THEORY = SGP/SGP4

EPOCH          = 2026-02-09T18:18:40.850784
MEAN_MOTION    = 15.54260186
ECCENTRICITY   = .0001388
INCLINATION    = 51.6290
RA_OF_ASC_NODE = 208.9274
ARG_OF_PERICENTER = 78.5492
MEAN_ANOMALY   = 281.5654

EPHEMERIS_TYPE = 0
CLASSIFICATION_TYPE = U
NORAD_CAT_ID   = 66906
ELEMENT_SET_NO = 999
REV_AT_EPOCH   = 1078
BSTAR          = .4951E-3
MEAN_MOTION_DOT = .32587E-3
MEAN_MOTION_DDOT = 0

CCSDS_OMM_VERS = 2.0
CREATION_DATE  = 
ORIGINATOR     = 

OBJECT_NAME    = ISS OBJECT XT
OBJECT_ID      = 1998-067XT
CENTER_NAME    = EARTH
REF_FRAME      = TEME
TIME_SYSTEM    = UTC
MEAN_ELEMENT_THEORY = SGP/SGP4

EPOCH          = 2026-02-09T16:21:55.103328
MEAN_MOTION    = 15.61838128
ECCENTRICITY   = .0001804
INCLINATION    = 51.6269
RA_OF_ASC_NODE = 207.6343
ARG_OF_PERICENTER = 243.6118
MEAN_ANOMALY   = 116.4691

EPHEMERIS_TYPE = 0
CLASSIFICATION_TYPE = U
NORAD_CAT_ID   = 66907
ELEMENT_SET_NO = 999
REV_AT_EPOCH   = 1079
BSTAR          = .11888E-2
MEAN_MOTION_DOT = .10604E-2
MEAN_MOTION_DDOT = 0

CCSDS_OMM_VERS = 2.0
CREATION_DATE  = 
ORIGINATOR     = 

OBJECT_NAME    = ISS OBJECT XU
OBJECT_ID      = 1998-067XU
CENTER_NAME    = EARTH
REF_FRAME      = TEME
TIME_SYSTEM    = UTC
MEAN_ELEMENT_THEORY = SGP/SGP4

EPOCH          = 2026-02-09T16:21:03.782592
MEAN_MOTION    = 15.61865115
ECCENTRICITY   = .0001635
INCLINATION    = 51.6265
RA_OF_ASC_NODE = 207.6278
ARG_OF_PERICENTER = 246.4379
MEAN_ANOMALY   = 113.6443

EPHEMERIS_TYPE = 0
CLASSIFICATION_TYPE = U
NORAD_CAT_ID   = 66908
ELEMENT_SET_NO = 999
REV_AT_EPOCH   = 1079
BSTAR          = .12072E-2
MEAN_MOTION_DOT = .107825E-2
MEAN_MOTION_DDOT = 0

