RSP-03                  
1 65732U 98067XL  26040.65947750  .00986718  52171-3  14470-2 0  9994
2 65732  51.6146 190.8360 0007808 307.6496  52.3806 16.04479219 22486
YOTSUBA-KULOVER         
1 65941U 98067XN  26040.60348963  .00125120  00000+0  96140-3 0  9999
2 65941  51.6236 201.8484 0003984 261.2387  98.8160 15.71134450 19070
BOTAN                   
1 65942U 98067XP  26040.47075433  .00382643  00000+0  15228-2 0  9996
2 65942  51.6175 198.6624 0006415 288.6720  71.3587 15.85050158 19108
E-KAGAKU-1              
1 65943U 98067XQ  26040.47712994  .00140038  00000+0  10797-2 0  9993
2 65943  51.6272 202.5184 0003685 280.4332  79.6250 15.70999257 19056
HRC MONOBLOCK CAMERA    
1 66052U 98067XR  26040.71829995  .00047675  00000+0  59664-3 0  9992
2 66052  51.6276 206.3794 0001235 357.5196   2.5791 15.59309115 18020
HTV-X1                  
1 66174U 25241A   26040.56801308  .00009074  00000+0  17540-3 0  9990
2 66174  51.6311 211.3720 0011128  80.8535 279.3711 15.48504497   514
SZ-21 MODULE            
1 66515U 25246C   26040.27417321  .00037161  00000+0  34919-3 0  9997
2 66515  41.4766  17.9863 0002766 286.9466  73.1072 15.66393879 13617
SHENZHOU-22             
1 66645U 25272A   26040.41958423  .00018345  00000+0  22932-3 0  9994
2 66645  41.4684  20.0103 0004697  39.0740 321.0437 15.59384169267647
SOYUZ-MS 28             
1 66664U 25275A   26040.56801308  .00009074  00000+0  17540-3 0  9991
2 66664  51.6311 211.3720 0011129  80.8535 279.3711 15.48504497551970
DUPLEX                  
1 66906U 98067XS  26040.76297281  .00032587  00000+0  49510-3 0  9997
2 66906  51.6290 208.9274 0001388  78.5492 281.5654 15.54260186 10784
ISS OBJECT XT           
1 66907U 98067XT  26040.68188777  .00106040  00000+0  11888-2 0  9990
2 66907  51.6269 207.6343 0001804 243.6118 116.4691 15.61838128 10790
ISS OBJECT XU           
1 66908U 98067XU  26040.68129378  .00107825  00000+0  12072-2 0  9991
2 66908  51.6265 207.6278 0001635 246.4379 113.6443 15.61865115 10796
